54138,ONEWEB-0520,2022,109.11,148.0,+,87.91,Active,1,LEO,India,UK,Commercial,Communications,PSLV,1 54138U 22138AB  24258.93284901 -.00000001  00000+0 -34187-4 0  9993,2 54138  87.9091  72.3113 0001634 106.8741 253.2571 13.19731566 92373,13.19731566,0.0001634,LEO
54139,ONEWEB-0521,2022,109.11,148.0,+,87.91,Active,1,LEO,India,UK,Commercial,Communications,PSLV,1 54139U 22138AC  24258.89020463  .00000117  00000+0  26027-3 0  9999,2 54139  87.9091  72.3114 0001718  83.1417 276.9911 13.19727698 92310,13.19727698,0.0001718,LEO
54140,ONEWEB-0522,2022,109.11,148.0,+,87.91,Active,1,LEO,India,UK,Commercial,Communications,PSLV,1 54140U 22138AD  24258.86967355  .00000062  00000+0  12363-3 0  9995,2 54140  87.9089  72.3171 0001786  94.1971 265.9366 13.19724468 92352,13.19724468,0.0001786,LEO
54141,ONEWEB-0523,2022,109.03,148.0,+,87.92,Active,1,LEO,India,UK,Commercial,Communications,PSLV,1 54141U 22138AE  24259.11286928  .00000211  00000+0  48718-3 0  9994,2 54141  87.9235  41.7538 0002313  77.2642 282.8750 13.20774547 95686,13.20774547,0.0002313,LEO
54142,ONEWEB-0524,2022,109.03,148.0,+,87.92,Active,1,LEO,India,UK,Commercial,Communications,PSLV,1 54142U 22138AF  24258.79881421  .00000041  00000+0  68077-4 0  9999,2 54142  87.9234  41.8191 0002849  98.7373 261.4083 13.20771212 94772,13.20771212,0.0002849,LEO
54143,ONEWEB-0525,2022,109.11,148.0,+,87.91,Active,1,LEO,India,UK,Commercial,Communications,PSLV,1 54143U 22138AG  24258.88860427 -.00000301  00000+0 -78541-3 0  9990,2 54143  87.9092  72.3245 0001584 101.7126 258.4184 13.19724382 92376,13.19724382,0.0001584,LEO
54144,ONEWEB-0526,2022,109.11,148.0,+,87.91,Active,1,LEO,India,UK,Commercial,Communications,PSLV,1 54144U 22138AH  24258.84596306 -.00000059  00000+0 -17988-3 0  9997,2 54144  87.9089  72.3266 0001768  95.6152 264.5182 13.19726751 92345,13.19726751,0.0001768,LEO
54145,ONEWEB-0529,2022,109.11,148.0,+,87.91,Active,1,LEO,India,UK,Commercial,Communications,PSLV,1 54145U 22138AJ  24258.84914406 -.00000169  00000+0 -45503-3 0  9999,2 54145  87.9097  72.3477 0001835 102.0081 258.1258 13.19724709 92364,13.19724709,0.0001835,LEO
